[{"OBJECT_NAME":"STARLINK-31224","OBJECT_ID":"2024-038G","EPOCH":"2026-03-09T21:44:54.110976","MEAN_MOTION":15.27573382,"ECCENTRICITY":6.55e-5,"INCLINATION":43.0027,"RA_OF_ASC_NODE":25.5928,"ARG_OF_PERICENTER":264.7705,"MEAN_ANOMALY":95.3072,"EPHEMERIS_TYPE":0,"CLASSIFICATION_TYPE":"U","NORAD_CAT_ID":59029,"ELEMENT_SET_NO":999,"REV_AT_EPOCH":11479,"BSTAR":-1.0485071e-5,"MEAN_MOTION_DOT":-5.5e-6,"MEAN_MOTION_DDOT":0},{"OBJECT_NAME":"239ALFEROV (RS61S)","OBJECT_ID":"2025-155F","EPOCH":"2026-03-09T21:46:33.382848","MEAN_MOTION":15.29933217,"ECCENTRICITY":0.00084878,"INCLINATION":97.4469,"RA_OF_ASC_NODE":37.6373,"ARG_OF_PERICENTER":151.5904,"MEAN_ANOMALY":208.58,"EPHEMERIS_TYPE":0,"CLASSIFICATION_TYPE":"U","NORAD_CAT_ID":64881,"ELEMENT_SET_NO":999,"REV_AT_EPOCH":6561,"BSTAR":0.00067233359,"MEAN_MOTION_DOT":0.00019457,"MEAN_MOTION_DDOT":0}]
